{"type": "FeatureCollection", "features": [ {"type": "Feature", "properties": {"norad_id": 34117, "name": "COSMOS 2251 DEB", "group": "cosmos-2251-debris", "lat": -70.02118744584415, "lon": -158.95448073925974, "alt_km": 797.4643793726345, "timestamp": "2025-12-20T16:47:36.678519+00:00", "meta": {"OBJECT_NAME": "COSMOS 2251 DEB", "OBJECT_ID": "1993-036KN", "EPOCH": "2025-12-20T08:55:52.413024", "MEAN_MOTION": 14.40039498, "ECCENTRICITY": 0.0054848, "INCLINATION": 74.0395, "RA_OF_ASC_NODE": 329.7266, "ARG_OF_PERICENTER": 43.9351, "MEAN_ANOMALY": 316.6145, "EPHEMERIS_TYPE": 0, "CLASSIFICATION_TYPE": "U", "NORAD_CAT_ID": 34117, "ELEMENT_SET_NO": 999, "REV_AT_EPOCH": 88233, "BSTAR": 0.00048421, "MEAN_MOTION_DOT": 1.527e-05, "MEAN_MOTION_DDOT": 0}, "tle": {"line1": "1 34117U 93036KN  25354.37213441  .00001527  00000+0  48421-3 0  9997", "line2": "2 34117  74.0395 329.7266 0054848  43.9351 316.6145 14.40039498882337"}}, "geometry": {"type": "Point", "coordinates": [-158.95448073925974, -70.02118744584415]}}, {"type": "Feature", "properties": {"norad_id": 34118, "name": "COSMOS 2251 DEB", "group": "cosmos-2251-debris", "lat": 69.4709314527498, "lon": -76.56940605160929, "alt_km": 537.4542626307775, "timestamp": "2025-12-20T16:47:36.678529+00:00", "meta": {"OBJECT_NAME": "COSMOS 2251 DEB", "OBJECT_ID": "1993-036KP", "EPOCH": "2025-12-20T08:56:41.368992", "MEAN_MOTION": 14.94184152, "ECCENTRICITY": 0.0060112, "INCLINATION": 73.9518, "RA_OF_ASC_NODE": 233.8545, "ARG_OF_PERICENTER": 62.1747, "MEAN_ANOMALY": 56.3304, "EPHEMERIS_TYPE": 0, "CLASSIFICATION_TYPE": "U", "NORAD_CAT_ID": 34118, "ELEMENT_SET_NO": 999, "REV_AT_EPOCH": 89290, "BSTAR": 0.00094565, "MEAN_MOTION_DOT": 0.00010474, "MEAN_MOTION_DDOT": 0}, "tle": {"line1": "1 34118U 93036KP  25354.37270103  .00010474  00000+0  94565-3 0  9997", "line2": "2 34118  73.9518 233.8545 0060112  62.1747  56.3304 14.94184152892907"}}, "geometry": {"type": "Point", "coordinates": [-76.56940605160929, 69.4709314527498]}}, {"type": "Feature", "properties": {"norad_id": 34120, "name": "COSMOS 2251 DEB", "group": "cosmos-2251-debris", "lat": -73.86389358479688, "lon": 119.52255135753445, "alt_km": 962.2842400018417, "timestamp": "2025-12-20T16:47:36.678539+00:00", "meta": {"OBJECT_NAME": "COSMOS 2251 DEB", "OBJECT_ID": "1993-036KR", "EPOCH": "2025-12-20T07:43:42.007008", "MEAN_MOTION": 13.98691849, "ECCENTRICITY": 0.0182289, "INCLINATION": 73.9904, "RA_OF_ASC_NODE": 203.0871, "ARG_OF_PERICENTER": 29.0876, "MEAN_ANOMALY": 143.5907, "EPHEMERIS_TYPE": 0, "CLASSIFICATION_TYPE": "U", "NORAD_CAT_ID": 34120, "ELEMENT_SET_NO": 999, "REV_AT_EPOCH": 86086, "BSTAR": 0.0002482, "MEAN_MOTION_DOT": 3.87e-06, "MEAN_MOTION_DDOT": 0}, "tle": {"line1": "1 34120U 93036KR  25354.32201397  .00000387  00000+0  24820-3 0  9993", "line2": "2 34120  73.9904 203.0871 0182289  29.0876 143.5907 13.98691849860862"}}, "geometry": {"type": "Point", "coordinates": [119.52255135753445, -73.86389358479688]}}, {"type": "Feature", "properties": {"norad_id": 34121, "name": "COSMOS 2251 DEB", "group": "cosmos-2251-debris", "lat": -61.69014372399578, "lon": 51.3265230585671, "alt_km": 753.8710583054117, "timestamp": "2025-12-20T16:47:36.678549+00:00", "meta": {"OBJECT_NAME": "COSMOS 2251 DEB", "OBJECT_ID": "1993-036KS", "EPOCH": "2025-12-20T10:36:53.779104", "MEAN_MOTION": 13.91955326, "ECCENTRICITY": 0.0240748, "INCLINATION": 73.9924, "RA_OF_ASC_NODE": 83.9706, "ARG_OF_PERICENTER": 287.8023, "MEAN_ANOMALY": 156.0534, "EPHEMERIS_TYPE": 0, "CLASSIFICATION_TYPE": "U", "NORAD_CAT_ID": 34121, "ELEMENT_SET_NO": 999, "REV_AT_EPOCH": 85232, "BSTAR": 0.00089943, "MEAN_MOTION_DOT": 1.428e-05, "MEAN_MOTION_DDOT": 0}, "tle": {"line1": "1 34121U 93036KS  25354.44228911  .00001428  00000+0  89943-3 0  9992", "line2": "2 34121  73.9924  83.9706 0240748 287.8023 156.0534 13.91955326852323"}}, "geometry": {"type": "Point", "coordinates": [51.3265230585671, -61.69014372399578]}}, {"type": "Feature", "properties": {"norad_id": 34122, "name": "COSMOS 2251 DEB", "group": "cosmos-2251-debris", "lat": 57.36510353825663, "lon": -103.23161374542987, "alt_km": 701.0583198527556, "timestamp": "2025-12-20T16:47:36.678559+00:00", "meta": {"OBJECT_NAME": "COSMOS 2251 DEB", "OBJECT_ID": "1993-036KT", "EPOCH": "2025-12-19T17:59:46.157856", "MEAN_MOTION": 14.65126194, "ECCENTRICITY": 0.0084721, "INCLINATION": 74.0362, "RA_OF_ASC_NODE": 105.1466, "ARG_OF_PERICENTER": 0.0124, "MEAN_ANOMALY": 149.8471, "EPHEMERIS_TYPE": 0, "CLASSIFICATION_TYPE": "U", "NORAD_CAT_ID": 34122, "ELEMENT_SET_NO": 999, "REV_AT_EPOCH": 88787, "BSTAR": 0.00069383656, "MEAN_MOTION_DOT": 3.9e-05, "MEAN_MOTION_DDOT": 0}, "tle": {"line1": "1 34122U 93036KT  25353.74983979  .00003900  00000+0  69384-3 0  9991", "line2": "2 34122  74.0362 105.1466 0084721   0.0124 149.8471 14.65126194887879"}}, "geometry": {"type": "Point", "coordinates": [-103.23161374542987, 57.36510353825663]}}, {"type": "Feature", "properties": {"norad_id": 34127, "name": "COSMOS 2251 DEB", "group": "cosmos-2251-debris", "lat": 30.73265153620528, "lon": -160.2267981090004, "alt_km": 769.2013969372301, "timestamp": "2025-12-20T16:47:36.678569+00:00", "meta": {"OBJECT_NAME": "COSMOS 2251 DEB", "OBJECT_ID": "1993-036KY", "EPOCH": "2025-12-20T02:59:31.260768", "MEAN_MOTION": 14.31607311, "ECCENTRICITY": 0.0114891, "INCLINATION": 74.1792, "RA_OF_ASC_NODE": 30.5171, "ARG_OF_PERICENTER": 229.0714, "MEAN_ANOMALY": 197.4918, "EPHEMERIS_TYPE": 0, "CLASSIFICATION_TYPE": "U", "NORAD_CAT_ID": 34127, "ELEMENT_SET_NO": 999, "REV_AT_EPOCH": 86877, "BSTAR": 0.001044676, "MEAN_MOTION_DOT": 2.966e-05, "MEAN_MOTION_DDOT": 0}, "tle": {"line1": "1 34127U 93036KY  25354.12466737  .00002966  00000+0  10447-2 0  9993", "line2": "2 34127  74.1792  30.5171 0114891 229.0714 197.4918 14.31607311868777"}}, "geometry": {"type": "Point", "coordinates": [-160.2267981090004, 30.73265153620528]}}, {"type": "Feature", "properties": {"norad_id": 34128, "name": "COSMOS 2251 DEB", "group": "cosmos-2251-debris", "lat": -11.555284141674667, "lon": 103.83855670318164, "alt_km": 583.569759517768, "timestamp": "2025-12-20T16:47:36.678579+00:00", "meta": {"OBJECT_NAME": "COSMOS 2251 DEB", "OBJECT_ID": "1993-036KZ", "EPOCH": "2025-12-20T01:36:15.547968", "MEAN_MOTION": 15.01428309, "ECCENTRICITY": 0.00260273, "INCLINATION": 73.9993, "RA_OF_ASC_NODE": 281.7665, "ARG_OF_PERICENTER": 32.4281, "MEAN_ANOMALY": 339.9968, "EPHEMERIS_TYPE": 0, "CLASSIFICATION_TYPE": "U", "NORAD_CAT_ID": 34128, "ELEMENT_SET_NO": 999, "REV_AT_EPOCH": 89277, "BSTAR": 0.00099436243, "MEAN_MOTION_DOT": 0.00012915, "MEAN_MOTION_DDOT": 0}, "tle": {"line1": "1 34128U 93036KZ  25354.06684662  .00012915  00000+0  99436-3 0  9997", "line2": "2 34128  73.9993 281.7665 0026027  32.4281 339.9968 15.01428309892775"}}, "geometry": {"type": "Point", "coordinates": [103.83855670318164, -11.555284141674667]}}, {"type": "Feature", "properties": {"norad_id": 34129, "name": "COSMOS 2251 DEB", "group": "cosmos-2251-debris", "lat": 71.752374281062, "lon": 83.69025108441336, "alt_km": 621.9916524442933, "timestamp": "2025-12-20T16:47:36.678589+00:00", "meta": {"OBJECT_NAME": "COSMOS 2251 DEB", "OBJECT_ID": "1993-036LA", "EPOCH": "2025-12-20T06:35:18.877056", "MEAN_MOTION": 14.75860485, "ECCENTRICITY": 0.0033284, "INCLINATION": 74.0352, "RA_OF_ASC_NODE": 324.7802, "ARG_OF_PERICENTER": 43.9199, "MEAN_ANOMALY": 316.4612, "EPHEMERIS_TYPE": 0, "CLASSIFICATION_TYPE": "U", "NORAD_CAT_ID": 34129, "ELEMENT_SET_NO": 999, "REV_AT_EPOCH": 61409, "BSTAR": 0.00098354, "MEAN_MOTION_DOT": 6.785e-05, "MEAN_MOTION_DDOT": 0}, "tle": {"line1": "1 34129U 93036LA  25354.27452404  .00006785  00000+0  98354-3 0  9994", "line2": "2 34129  74.0352 324.7802 0033284  43.9199 316.4612 14.75860485614094"}}, "geometry": {"type": "Point", "coordinates": [83.69025108441336, 71.752374281062]}}, {"type": "Feature", "properties": {"norad_id": 34136, "name": "COSMOS 2251 DEB", "group": "cosmos-2251-debris", "lat": 14.786608458351058, "lon": 31.271491658741564, "alt_km": 669.3532433311475, "timestamp": "2025-12-20T16:47:36.678598+00:00", "meta": {"OBJECT_NAME": "COSMOS 2251 DEB", "OBJECT_ID": "1993-036LH", "EPOCH": "2025-12-20T12:22:24.199104", "MEAN_MOTION": 14.80126204, "ECCENTRICITY": 0.0085244, "INCLINATION": 74.0199, "RA_OF_ASC_NODE": 27.2965, "ARG_OF_PERICENTER": 148.1567, "MEAN_ANOMALY": 327.1329, "EPHEMERIS_TYPE": 0, "CLASSIFICATION_TYPE": "U", "NORAD_CAT_ID": 34136, "ELEMENT_SET_NO": 999, "REV_AT_EPOCH": 90125, "BSTAR": 0.00024728, "MEAN_MOTION_DOT": 1.959e-05, "MEAN_MOTION_DDOT": 0}, "tle": {"line1": "1 34136U 93036LH  25354.51555786  .00001959  00000+0  24728-3 0  9998", "line2": "2 34136  74.0199  27.2965 0085244 148.1567 327.1329 14.80126204901257"}}, "geometry": {"type": "Point", "coordinates": [31.271491658741564, 14.786608458351058]}}, {"type": "Feature", "properties": {"norad_id": 34139, "name": "COSMOS 2251 DEB", "group": "cosmos-2251-debris", "lat": -34.52990655465561, "lon": 70.25363466328463, "alt_km": 703.0264732489586, "timestamp": "2025-12-20T16:47:36.678608+00:00", "meta": {"OBJECT_NAME": "COSMOS 2251 DEB", "OBJECT_ID": "1993-036LL", "EPOCH": "2025-12-20T03:22:42.008736", "MEAN_MOTION": 14.59153127, "ECCENTRICITY": 0.00425167, "INCLINATION": 74.0304, "RA_OF_ASC_NODE": 239.9554, "ARG_OF_PERICENTER": 309.8586, "MEAN_ANOMALY": 211.6382, "EPHEMERIS_TYPE": 0, "CLASSIFICATION_TYPE": "U", "NORAD_CAT_ID": 34139, "ELEMENT_SET_NO": 999, "REV_AT_EPOCH": 88257, "BSTAR": 0.00082666383, "MEAN_MOTION_DOT": 3.915e-05, "MEAN_MOTION_DDOT": 0}, "tle": {"line1": "1 34139U 93036LL  25354.14076399  .00003915  00000+0  82666-3 0  9997", "line2": "2 34139  74.0304 239.9554 0042516 309.8586 211.6382 14.59153127882575"}}, "geometry": {"type": "Point", "coordinates": [70.25363466328463, -34.52990655465561]}}]}